[
    {
        "Altitude(m)": 604234.6235042245,
        "Argument of Periapsis(deg)": 0.0,
        "Eccentricity": 0.0,
        "Inclination(deg)": 60.0,
        "Latitude(deg)": 14.117317166697621,
        "Longitude(deg)": 66.72731636697179,
        "Mean Anomaly(deg)": -196.36359999999996,
        "RAAN(deg)": 355.0,
        "Satellite Name": "Test1 1572",
        "Satellite Number": 1572,
        "Semi-Major Axis(m)": 6980739.136638005,
        "Time(s)": 0
    },
    {
        "Altitude(m)": 604223.4516113797,
        "Argument of Periapsis(deg)": 0.00010418945913296404,
        "Eccentricity": 0.0,
        "Inclination(deg)": 60.0,
        "Latitude(deg)": 13.58245375953578,
        "Longitude(deg)": 67.01422607232169,
        "Mean Anomaly(deg)": -195.74349385453812,
        "RAAN(deg)": 354.99957995086027,
        "Satellite Name": "Test1 1572",
        "Satellite Number": 1572,
        "Semi-Major Axis(m)": 6980739.136638005,
        "Time(s)": 10
    }
]